SENTINEL-3A             
1 41335U 16011A   26193.81396524  .00000043  00000+0  35880-4 0  9998
2 41335  98.6238 260.8281 0001371  90.9122 269.2216 14.26739357541719
SENTINEL-3B             
1 43437U 18039A   26193.78710032  .00000004  00000+0  19507-4 0  9990
2 43437  98.6237 260.9506 0001083 119.4324 240.6964 14.26735933427773
